[{"OBJECT_NAME":"IRIDIUM 108","OBJECT_ID":"2017-003H","EPOCH":"2026-03-09T14:45:22.333248","MEAN_MOTION":14.34217052,"ECCENTRICITY":0.000234,"INCLINATION":86.3916,"RA_OF_ASC_NODE":98.4141,"ARG_OF_PERICENTER":95.4169,"MEAN_ANOMALY":264.7294,"EPHEMERIS_TYPE":0,"CLASSIFICATION_TYPE":"U","NORAD_CAT_ID":41924,"ELEMENT_SET_NO":999,"REV_AT_EPOCH":48083,"BSTAR":9.2737e-7,"MEAN_MOTION_DOT":2.2e-7,"MEAN_MOTION_DDOT":0},{"OBJECT_NAME":"METEOR 2-5 DEB","OBJECT_ID":"1979-095CE","EPOCH":"2026-03-06T23:25:56.036928","MEAN_MOTION":14.33292715,"ECCENTRICITY":0.00111611,"INCLINATION":81.1989,"RA_OF_ASC_NODE":266.9519,"ARG_OF_PERICENTER":2.3192,"MEAN_ANOMALY":357.8041,"EPHEMERIS_TYPE":0,"CLASSIFICATION_TYPE":"U","NORAD_CAT_ID":39603,"ELEMENT_SET_NO":999,"REV_AT_EPOCH":62882,"BSTAR":0.0015998335,"MEAN_MOTION_DOT":4.419e-5,"MEAN_MOTION_DDOT":0}]
